STARLINK-4589           
1 53746U 22107AY  26068.76206717 -.00000320  00000+0 -20258-5 0  9993
2 53746  53.2158 263.8466 0001411 103.6115 256.5035 15.08844063194605
ONEWEB-0618             
1 55159U 23004V   26068.89389266  .00008547  00000+0  49588-3 0  9997
2 55159  86.9069 217.8931 0010784 307.7231  52.3030 15.11974897167255
